[{"OBJECT_NAME":"DUPLEX","OBJECT_ID":"1998-067XS","EPOCH":"2026-03-28T20:14:15.748512","MEAN_MOTION":15.57497317,"ECCENTRICITY":0.00029856,"INCLINATION":51.6303,"RA_OF_ASC_NODE":333.56,"ARG_OF_PERICENTER":199.9442,"MEAN_ANOMALY":160.1434,"EPHEMERIS_TYPE":0,"CLASSIFICATION_TYPE":"U","NORAD_CAT_ID":66906,"ELEMENT_SET_NO":999,"REV_AT_EPOCH":1811,"BSTAR":0.00044901713,"MEAN_MOTION_DOT":0.0003331,"MEAN_MOTION_DDOT":0},{"OBJECT_NAME":"ISS OBJECT XT","OBJECT_ID":"1998-067XT","EPOCH":"2026-03-28T21:37:09.282432","MEAN_MOTION":15.76367324,"ECCENTRICITY":0.00059974,"INCLINATION":51.6244,"RA_OF_ASC_NODE":327.1576,"ARG_OF_PERICENTER":204.4766,"MEAN_ANOMALY":155.595,"EPHEMERIS_TYPE":0,"CLASSIFICATION_TYPE":"U","NORAD_CAT_ID":66907,"ELEMENT_SET_NO":999,"REV_AT_EPOCH":1820,"BSTAR":0.0014556512,"MEAN_MOTION_DOT":0.0024118,"MEAN_MOTION_DDOT":0},{"OBJECT_NAME":"ISS OBJECT XU","OBJECT_ID":"1998-067XU","EPOCH":"2026-03-28T21:31:40.285056","MEAN_MOTION":15.76627027,"ECCENTRICITY":0.00062222,"INCLINATION":51.6247,"RA_OF_ASC_NODE":327.1275,"ARG_OF_PERICENTER":204.3125,"MEAN_ANOMALY":155.7582,"EPHEMERIS_TYPE":0,"CLASSIFICATION_TYPE":"U","NORAD_CAT_ID":66908,"ELEMENT_SET_NO":999,"REV_AT_EPOCH":1820,"BSTAR":0.0014825262,"MEAN_MOTION_DOT":0.00248719,"MEAN_MOTION_DDOT":0},{"OBJECT_NAME":"SILVERSAT","OBJECT_ID":"1998-067XV","EPOCH":"2026-03-28T21:55:52.386528","MEAN_MOTION":15.81917197,"ECCENTRICITY":0.00070418,"INCLINATION":51.6213,"RA_OF_ASC_NODE":325.7273,"ARG_OF_PERICENTER":210.4604,"MEAN_ANOMALY":149.599,"EPHEMERIS_TYPE":0,"CLASSIFICATION_TYPE":"U","NORAD_CAT_ID":66909,"ELEMENT_SET_NO":999,"REV_AT_EPOCH":1822,"BSTAR":0.0016516213,"MEAN_MOTION_DOT":0.00356924,"MEAN_MOTION_DDOT":0},{"OBJECT_NAME":"ISS OBJECT XW","OBJECT_ID":"1998-067XW","EPOCH":"2026-03-28T20:16:08.243040","MEAN_MOTION":15.74880247,"ECCENTRICITY":0.00063021,"INCLINATION":51.6233,"RA_OF_ASC_NODE":327.5249,"ARG_OF_PERICENTER":201.535,"MEAN_ANOMALY":158.5385,"EPHEMERIS_TYPE":0,"CLASSIFICATION_TYPE":"U","NORAD_CAT_ID":66910,"ELEMENT_SET_NO":999,"REV_AT_EPOCH":1819,"BSTAR":0.0013128984,"MEAN_MOTION_DOT":0.00202838,"MEAN_MOTION_DDOT":0},{"OBJECT_NAME":"ISS OBJECT XX","OBJECT_ID":"1998-067XX","EPOCH":"2026-03-28T22:02:01.307616","MEAN_MOTION":15.88587142,"ECCENTRICITY":0.0008876,"INCLINATION":51.6187,"RA_OF_ASC_NODE":324.2195,"ARG_OF_PERICENTER":215.1159,"MEAN_ANOMALY":144.9262,"EPHEMERIS_TYPE":0,"CLASSIFICATION_TYPE":"U","NORAD_CAT_ID":66911,"ELEMENT_SET_NO":999,"REV_AT_EPOCH":1823,"BSTAR":0.0017927581,"MEAN_MOTION_DOT":0.00546382,"MEAN_MOTION_DDOT":0},{"OBJECT_NAME":"ISS OBJECT XY","OBJECT_ID":"1998-067XY","EPOCH":"2026-03-28T20:36:18.550656","MEAN_MOTION":15.67599679,"ECCENTRICITY":0.00042762,"INCLINATION":51.627,"RA_OF_ASC_NODE":329.8999,"ARG_OF_PERICENTER":200.6953,"MEAN_ANOMALY":159.3871,"EPHEMERIS_TYPE":0,"CLASSIFICATION_TYPE":"U","NORAD_CAT_ID":66912,"ELEMENT_SET_NO":999,"REV_AT_EPOCH":1815,"BSTAR":0.0010162185,"MEAN_MOTION_DOT":0.00114101,"MEAN_MOTION_DDOT":0},{"OBJECT_NAME":"KNACKSAT-2","OBJECT_ID":"1998-067XZ","EPOCH":"2026-03-28T20:15:13.499136","MEAN_MOTION":15.53408087,"ECCENTRICITY":0.00100048,"INCLINATION":51.6323,"RA_OF_ASC_NODE":336.5646,"ARG_OF_PERICENTER":255.1936,"MEAN_ANOMALY":104.7946,"EPHEMERIS_TYPE":0,"CLASSIFICATION_TYPE":"U","NORAD_CAT_ID":67683,"ELEMENT_SET_NO":999,"REV_AT_EPOCH":776,"BSTAR":0.00070231248,"MEAN_MOTION_DOT":0.00045155,"MEAN_MOTION_DDOT":0},{"OBJECT_NAME":"CORAL","OBJECT_ID":"1998-067YA","EPOCH":"2026-03-28T21:42:17.132544","MEAN_MOTION":15.57580097,"ECCENTRICITY":0.00127711,"INCLINATION":51.6304,"RA_OF_ASC_NODE":335.4688,"ARG_OF_PERICENTER":245.0966,"MEAN_ANOMALY":114.8699,"EPHEMERIS_TYPE":0,"CLASSIFICATION_TYPE":"U","NORAD_CAT_ID":67684,"ELEMENT_SET_NO":999,"REV_AT_EPOCH":778,"BSTAR":0.0012482878,"MEAN_MOTION_DOT":0.00094825,"MEAN_MOTION_DDOT":0},{"OBJECT_NAME":"GXIBA-1","OBJECT_ID":"1998-067YB","EPOCH":"2026-03-28T21:33:25.566048","MEAN_MOTION":15.53958389,"ECCENTRICITY":0.00119636,"INCLINATION":51.6321,"RA_OF_ASC_NODE":336.1777,"ARG_OF_PERICENTER":252.5116,"MEAN_ANOMALY":107.4567,"EPHEMERIS_TYPE":0,"CLASSIFICATION_TYPE":"U","NORAD_CAT_ID":67685,"ELEMENT_SET_NO":999,"REV_AT_EPOCH":777,"BSTAR":0.00077797107,"MEAN_MOTION_DOT":0.00051175,"MEAN_MOTION_DDOT":0},{"OBJECT_NAME":"UITMSAT-2","OBJECT_ID":"1998-067YC","EPOCH":"2026-03-28T21:12:19.793088","MEAN_MOTION":15.54908203,"ECCENTRICITY":0.00090614,"INCLINATION":51.6324,"RA_OF_ASC_NODE":336.0822,"ARG_OF_PERICENTER":224.2603,"MEAN_ANOMALY":135.7664,"EPHEMERIS_TYPE":0,"CLASSIFICATION_TYPE":"U","NORAD_CAT_ID":67686,"ELEMENT_SET_NO":999,"REV_AT_EPOCH":777,"BSTAR":0.00087079844,"MEAN_MOTION_DOT":0.00059365,"MEAN_MOTION_DDOT":0},{"OBJECT_NAME":"HMU-SAT2","OBJECT_ID":"1998-067YD","EPOCH":"2026-03-28T21:40:32.213568","MEAN_MOTION":15.53705235,"ECCENTRICITY":0.0008619,"INCLINATION":51.6326,"RA_OF_ASC_NODE":336.2133,"ARG_OF_PERICENTER":227.1165,"MEAN_ANOMALY":132.9102,"EPHEMERIS_TYPE":0,"CLASSIFICATION_TYPE":"U","NORAD_CAT_ID":67687,"ELEMENT_SET_NO":999,"REV_AT_EPOCH":769,"BSTAR":0.00077881244,"MEAN_MOTION_DOT":0.00050682,"MEAN_MOTION_DDOT":0},{"OBJECT_NAME":"LEOPARD","OBJECT_ID":"1998-067YE","EPOCH":"2026-03-28T21:21:57.107520","MEAN_MOTION":15.5447713,"ECCENTRICITY":0.00088156,"INCLINATION":51.6332,"RA_OF_ASC_NODE":336.1274,"ARG_OF_PERICENTER":224.8426,"MEAN_ANOMALY":135.1853,"EPHEMERIS_TYPE":0,"CLASSIFICATION_TYPE":"U","NORAD_CAT_ID":67688,"ELEMENT_SET_NO":999,"REV_AT_EPOCH":769,"BSTAR":0.00082004053,"MEAN_MOTION_DOT":0.00054959,"MEAN_MOTION_DDOT":0},{"OBJECT_NAME":"CREW DRAGON 12","OBJECT_ID":"2026-031A","EPOCH":"2026-03-28T20:59:21.130368","MEAN_MOTION":15.48616916,"ECCENTRICITY":0.0006219,"INCLINATION":51.6344,"RA_OF_ASC_NODE":337.5169,"ARG_OF_PERICENTER":244.1555,"MEAN_ANOMALY":115.8792,"EPHEMERIS_TYPE":0,"CLASSIFICATION_TYPE":"U","NORAD_CAT_ID":67796,"ELEMENT_SET_NO":999,"REV_AT_EPOCH":55926,"BSTAR":0.00021127888,"MEAN_MOTION_DOT":0.00011057,"MEAN_MOTION_DDOT":0},{"OBJECT_NAME":"PROGRESS-MS 33","OBJECT_ID":"2026-058A","EPOCH":"2026-03-28T20:59:21.130368","MEAN_MOTION":15.48616916,"ECCENTRICITY":0.0006219,"INCLINATION":51.6344,"RA_OF_ASC_NODE":337.5169,"ARG_OF_PERICENTER":244.1555,"MEAN_ANOMALY":115.8792,"EPHEMERIS_TYPE":0,"CLASSIFICATION_TYPE":"U","NORAD_CAT_ID":68319,"ELEMENT_SET_NO":999,"REV_AT_EPOCH":70,"BSTAR":0.00021127888,"MEAN_MOTION_DOT":0.00011057,"MEAN_MOTION_DDOT":0}]
